ONEWEB-0112             
1 48051C 21025K   23014.05535137 -.00000903  00000-0 -24761-2 0   141
2 48051  87.9021 208.6261 0001544  92.9149  11.0748 13.13475500    11
ONEWEB-0156             
1 48052C 21025L   23014.14219164 -.00003498  00000-0 -95893-2 0   147
2 48052  87.9031 208.6319 0001526  91.4543  12.9702 13.13479186    13
ONEWEB-0161             
1 48053C 21025M   23014.11440229 -.00002211  00000-0 -60613-2 0   147
2 48053  87.9018 208.6196 0001291  91.9526  11.1517 13.13468149    19
ONEWEB-0158             
1 48054C 21025N   23014.08455276 -.00000334  00000-0 -91484-3 0   147
2 48054  87.9030 208.6509 0001921  87.6651  44.3224 13.13472253    17
ONEWEB-0157             
1 48055C 21025P   23014.17831433 -.00001759  00000-0 -48225-2 0   147
2 48055  87.9041 208.5950 0001261  96.3392   8.7331 13.13467943    18
ONEWEB-0162             
1 48056C 21025Q   23014.06926340 -.00002230  00000-0 -61128-2 0   140
2 48056  87.9026 208.6234 0001553  93.4408  36.3437 13.13478347    12
ONEWEB-0155             
1 48057C 21025R   23014.23802498 -.00000312  00000-0 -85604-3 0   142
2 48057  87.9023 208.5920 0001504  88.3600  18.8426 13.13472037    17
ONEWEB-0149             
1 48058C 21025S   23014.31962220  .00001383  00000-0  37911-2 0   146
2 48058  87.9013 208.5758 0001582 109.6081 283.3293 13.13464597    15
ONEWEB-0148             
1 48059C 21025T   23014.22305970 -.00001604  00000-0 -43985-2 0   146
2 48059  87.9030 208.6001 0001265 125.2597 341.3059 13.13475729    15
ONEWEB-0160             
1 48060C 21025U   23014.16299027 -.00001188  00000-0 -32571-2 0   142
2 48060  87.9022 208.6104 0002722  87.9116  14.7599 13.13471560    11
ONEWEB-0163             
1 48061C 21025V   23014.14810600 -.00001894  00000-0 -51931-2 0   142
2 48061  87.8965 208.6071 0001064  88.8124  13.5283 13.13474472    19
ONEWEB-0159             
1 48062C 21025W   23014.13766618 -.00004359  00000-0 -11951-1 0   147
2 48062  87.9032 208.6211 0001042  98.0902   4.9743 13.13476668    19
ONEWEB-0164             
1 48063C 21025X   23014.19531664 -.00002831  00000-0 -77626-2 0   140
2 48063  87.8930 208.5956 0001601  79.5848  25.8718 13.13471809    11
ONEWEB-0167             
1 48064C 21025Y   23014.06477266  .00000205  00000-0  56308-3 0   140
2 48064  87.9056 208.6194 0001176  93.8946 329.5865 13.13471707    16
ONEWEB-0166             
1 48065C 21025Z   23014.24913609 -.00000136  00000-0 -37327-3 0   142
2 48065  87.9014 208.5881 0001372 101.0284   8.7779 13.13468071    18
ONEWEB-0151             
1 48066C 21025AA  23014.17376157 -.00001482  00000-0 -40631-2 0   142
2 48066  87.9015 208.6042 0001628  81.1618  22.3920 13.13471157    12
ONEWEB-0170             
1 48067C 21025AB  23014.25782822 -.00000430  00000-0 -11787-2 0   144
2 48067  87.8951 208.5970 0002191  74.3412  36.5235 13.13468363    13
ONEWEB-0168             
1 48068C 21025AC  23014.09532822 -.00000332  00000-0 -90987-3 0   141
2 48068  87.9024 208.6524 0001421  93.4233  39.4974 13.13472991    14
ONEWEB-0173             
1 48069C 21025AD  23014.15882359 -.00001282  00000-0 -35145-2 0   141
2 48069  87.9029 208.6518 0001165  70.7804  32.1907 13.13470916    11
ONEWEB-0171             
1 48070C 21025AE  23014.19321016 -.00002745  00000-0 -75261-2 0   143
2 48070  87.9021 208.6044 0001381  97.6867   7.8128 13.13468641    12
ONEWEB-0172             
1 48071C 21025AF  23014.09150877 -.00000326  00000-0 -89370-3 0   148
2 48071  87.8977 208.6308 0001414  75.3862 354.4105 13.13468547    11
ONEWEB-0174             
1 48072C 21025AG  23014.23352266 -.00000591  00000-0 -16201-2 0   147
2 48072  87.9018 208.6072 0001474 114.8304 351.2004 13.13467381    11
ONEWEB-0175             
1 48073C 21025AH  23014.32168238  .00001280  00000-0  35092-2 0   145
2 48073  87.9011 208.5729 0001789  74.6930 317.9303 13.13463577    14
ONEWEB-0177             
1 48074C 21025AJ  23014.25849951 -.00001514  00000-0 -41523-2 0   144
2 48074  87.8972 208.5936 0000837  84.9132 309.1577 13.13468310    17
ONEWEB-0178             
1 48075C 21025AK  23014.29150879 -.00000245  00000-0 -67153-3 0   141
2 48075  87.9028 208.5829 0001227  92.5187  12.5867 13.13467350    11
ONEWEB-0108             
1 48076C 21025AL  23014.17588377 -.00001609  00000-0 -44129-2 0   149
2 48076  87.9013 208.6028 0001716  98.0381   5.5814 13.13470076    11
ONEWEB-0169             
1 48077C 21025AM  23014.05361526 -.00000903  00000-0 -24763-2 0   140
2 48077  87.8955 208.6267 0001667 104.4556   1.3568 13.13474201    16
ONEWEB-0176             
1 48210C 21031A   23014.34531666  .00001832  00000-0  49479-2 0   143
2 48210  87.9085 178.2720 0001314  95.4989   4.6628 13.14499226    12
ONEWEB-0184             
1 48211C 21031B   23014.09215692 -.00001573  00000-0 -42485-2 0   148
2 48211  87.9085 178.2953 0001978  57.5618  45.2385 13.14498664    11
ONEWEB-0179             
1 48212C 21031C   23014.13696016 -.00001781  00000-0 -48109-2 0   147
2 48212  87.9095 178.2856 0001115 100.8355   3.8582 13.14505757    19
ONEWEB-0180             
1 48213C 21031D   23014.17167081 -.00000293  00000-0 -79177-3 0   144
2 48213  87.9085 178.2755 0001272 102.0443   6.7958 13.14501305    17
ONEWEB-0218             
1 48214C 21031E   23014.17689072 -.00001472  00000-0 -39748-2 0   143
2 48214  87.9085 178.2846 0001534  43.6458 349.9149 13.14499098    15
ONEWEB-0209             
1 48215C 21031F   23014.10503887 -.00002462  00000-0 -66490-2 0   140
2 48215  87.9086 178.3294 0001295 100.5853   3.1345 13.14504413    16
ONEWEB-0198             
1 48216C 21031G   23014.09011988 -.00001430  00000-0 -38609-2 0   140
2 48216  87.9085 178.3436 0001103  72.7140  30.3779 13.14501200    15
ONEWEB-0189             
1 48217C 21031H   23014.02727266 -.00001827  00000-0 -49350-2 0   142
2 48217  87.9081 178.3426 0001004  78.7376  27.1507 13.14501584    16
ONEWEB-0196             
1 48218C 21031J   23014.08208749 -.00001164  00000-0 -31429-2 0   141
2 48218  87.9091 178.3163 0001444  88.5898  16.5738 13.14501767    13
ONEWEB-0183             
1 48219C 21031K   23014.05432127 -.00002990  00000-0 -80745-2 0   141
2 48219  87.9097 178.3416 0001398 102.1939   1.7183 13.14507337    17
ONEWEB-0185             
1 48220C 21031L   23014.07345322 -.00001016  00000-0 -27446-2 0   142
2 48220  87.9089 178.3146 0001320 100.8691 318.5180 13.14506405    16
ONEWEB-0187             
1 48221C 21031M   23014.13001572 -.00002120  00000-0 -57253-2 0   142
2 48221  87.9098 178.3283 0001249 100.2027 346.5726 13.14510859    11
ONEWEB-0192             
1 48222C 21031N   23014.33487683  .00002385  00000-0  64412-2 0   142
2 48222  87.9085 178.2340 0001367  87.8654  12.8703 13.14499718    16
ONEWEB-0219             
1 48223C 21031P   23014.23977266  .00002317  00000-0  62587-2 0   149
2 48223  87.9085 178.2903 0001271 101.6961 359.2609 13.14496102    19
ONEWEB-0202             
1 48224C 21031Q   23014.14392776 -.00001130  00000-0 -30507-2 0   148
2 48224  87.9096 178.3264 0001175  42.6032  65.0237 13.14504296    12
ONEWEB-0204             
1 48225C 21031R   23014.27271248  .00001470  00000-0  39702-2 0   144
2 48225  87.9092 178.3265 0002048 106.6225 325.0648 13.14503144    11
ONEWEB-0205             
1 48226C 21031S   23014.07759674 -.00001189  00000-0 -32106-2 0   147
2 48226  87.9092 178.3188 0001125  87.8794  15.9708 13.14506731    19
ONEWEB-0206             
1 48227C 21031T   23014.27692544  .00001561  00000-0  42142-2 0   145
2 48227  87.9092 178.2658 0001296 107.9386 348.7573 13.14503885    15
ONEWEB-0182             
1 48228C 21031U   23014.18140461 -.00001404  00000-0 -37918-2 0   145
2 48228  87.9091 178.3589 0001242 104.4264 290.5191 13.14505528    13
ONEWEB-0186             
1 48229C 21031V   23014.37517776  .00001825  00000-0  49282-2 0   146
2 48229  87.9096 178.2328 0001230  92.3709  79.0552 13.14502210    11
ONEWEB-0181             
1 48230C 21031W   23014.10955276 -.00002696  00000-0 -72820-2 0   143
2 48230  87.9087 178.3543 0001407  91.2765  13.7779 13.14504707    18
ONEWEB-0188             
1 48231C 21031X   23014.21094164  .00001253  00000-0  33849-2 0   140
2 48231  87.9096 178.3352 0001314  98.8021 295.7136 13.14504526    10
ONEWEB-0220             
1 48232C 21031Y   23014.11128887 -.00002788  00000-0 -75292-2 0   144
2 48232  87.9091 178.3144 0001049 106.7077 356.5780 13.14503451    17
ONEWEB-0165             
1 48233C 21031Z   23014.14150879 -.00001352  00000-0 -36522-2 0   143
2 48233  87.9098 178.3303 0001164  93.8491  12.3014 13.14507666    15
ONEWEB-0199             
1 48234C 21031AA  23014.12410137 -.00002767  00000-0 -74716-2 0   146
2 48234  87.9092 178.3091 0001261  95.7656   8.0916 13.14508465    17
ONEWEB-0203             
1 48235C 21031AB  23014.40361525  .00000858  00000-0  23173-2 0   142
2 48235  87.9087 178.2499 0001749  82.7370 313.0998 13.14503368    19
ONEWEB-0197             
1 48236C 21031AC  23014.10088377 -.00002175  00000-0 -58752-2 0   148
2 48236  87.9084 178.3193 0001379  95.5571   8.4872 13.14501080    18
ONEWEB-0194             
1 48237C 21031AD  23014.14597637 -.00000915  00000-0 -24703-2 0   146
2 48237  87.9096 178.3000 0001905  88.1805  19.1222 13.14504688    17
ONEWEB-0193             
1 48238C 21031AE  23014.37621942  .00003653  00000-0  98665-2 0   147
2 48238  87.9088 178.2649 0001410  85.9146 310.2918 13.14499855    17
ONEWEB-0191             
1 48239C 21031AF  23014.24808285  .00002047  00000-0  55288-2 0   141
2 48239  87.9083 178.2715 0001567  90.9521   9.2825 13.14498138    18
ONEWEB-0195             
1 48240C 21031AG  23014.06473380 -.00001081  00000-0 -29198-2 0   147
2 48240  87.9095 178.3024 0001086  79.9922 338.1659 13.14503195    14
ONEWEB-0201             
1 48241C 21031AH  23014.06055970 -.00001282  00000-0 -34626-2 0   144
2 48241  87.9096 178.3448 0001379  96.9825 321.2843 13.14507262    19
